     2              NAVIGATION DATA                         RINEX VERSION / TYPE
CCRINEXN V1.6.0 UX  CDDIS               18-JUN-16 15:33     PGM / RUN BY / DATE 
IGS BROADCAST EPHEMERIS FILE                                COMMENT             
    0.5588D-08  0.1490D-07 -0.5960D-07 -0.1192D-06          ION ALPHA           
    0.8397D+05  0.9830D+05 -0.6554D+05 -0.5243D+06          ION BETA            
   -0.186264514923D-08-0.177635683940D-14   589824     1901 DELTA-UTC: A0,A1,T,W
    17                                                      LEAP SECONDS        
                                                            END OF HEADER       
 5 16  6 17 20  0  0.0-0.112098176032D-03 0.284217094304D-11 0.000000000000D+00
    0.120000000000D+02-0.245000000000D+02 0.508592613495D-08-0.273146367979D+01
   -0.126473605633D-05 0.464495655615D-02 0.569596886635D-05 0.515380784416D+04
    0.504000000000D+06-0.167638063431D-07-0.150780362875D+01-0.409781932831D-07
    0.945877927247D+00 0.262218750000D+03 0.454389760712D+00-0.824141471657D-08
   -0.313941648358D-09 0.100000000000D+01 0.190100000000D+04 0.000000000000D+00
    0.200000000000D+01 0.000000000000D+00-0.107102096081D-07 0.120000000000D+02
    0.496800000000D+06 0.400000000000D+01 0.000000000000D+00 0.000000000000D+00
 6 16  6 17 20  0  0.0 0.206171069294D-03 0.534328137292D-11 0.000000000000D+00
    0.230000000000D+02 0.160312500000D+02 0.451947396852D-08 0.956001149194D+00
    0.759959220886D-06 0.398662174121D-03 0.771880149841D-05 0.515370841789D+04
    0.504000000000D+06-0.372529029846D-07-0.254568541904D+01-0.167638063431D-07
    0.964522123281D+00 0.234406250000D+03-0.136032824110D+01-0.793890211571D-08
    0.345371528968D-09 0.100000000000D+01 0.190100000000D+04 0.000000000000D+00
    0.200000000000D+01 0.000000000000D+00 0.419095158577D-08 0.230000000000D+02
    0.503400000000D+06 0.400000000000D+01 0.000000000000D+00 0.000000000000D+00
 7 16  6 17 20  0  0.0 0.447818078101D-03-0.238742359215D-11 0.000000000000D+00
    0.250000000000D+02 0.100000000000D+03 0.447804367135D-08-0.277610824862D-01
    0.536255538464D-05 0.958503503352D-02 0.497139990330D-05 0.515364430618D+04
    0.504000000000D+06 0.596046447754D-07 0.621473726327D+00 0.109896063805D-06
    0.966398592209D+00 0.286968750000D+03-0.267115263931D+01-0.829105964163D-08
    0.376087094109D-09 0.100000000000D+01 0.190100000000D+04 0.000000000000D+00
    0.200000000000D+01 0.000000000000D+00-0.111758708954D-07 0.250000000000D+02
    0.496800000000D+06 0.400000000000D+01 0.000000000000D+00 0.000000000000D+00
 8 16  6 17 20  0  0.0-0.394028611481D-04-0.147792889038D-11 0.000000000000D+00
    0.790000000000D+02-0.948437500000D+02 0.431732269096D-08-0.262573114394D+01
   -0.479444861412D-05 0.171626848169D-02 0.104177743196D-04 0.515371409416D+04
    0.504000000000D+06-0.372529029846D-07 0.268581208788D+01 0.558793544769D-07
    0.963747013691D+00 0.180593750000D+03-0.107159621205D+01-0.780711091179D-08
    0.703600736366D-10 0.000000000000D+00 0.190100000000D+04 0.000000000000D+00
    0.200000000000D+01 0.000000000000D+00 0.465661287308D-08 0.790000000000D+02
    0.502290000000D+06 0.400000000000D+01 0.000000000000D+00 0.000000000000D+00
 9 16  6 17 20  0  0.0 0.150524079800D-03 0.727595761418D-11 0.000000000000D+00
    0.108000000000D+03 0.372187500000D+02 0.419517474587D-08 0.241758648083D+01
    0.203214585781D-05 0.529577489942D-03 0.113509595394D-04 0.515356681251D+04
    0.504000000000D+06-0.134110450745D-06-0.456234220992D+00-0.745058059692D-08
    0.955134392176D+00 0.158062500000D+03 0.234251213192D+01-0.771996442465D-08
   -0.302869758598D-09 0.000000000000D+00 0.190100000000D+04 0.000000000000D+00
    0.280000000000D+01 0.000000000000D+00 0.139698386192D-08 0.108000000000D+03
    0.497010000000D+06 0.400000000000D+01 0.000000000000D+00 0.000000000000D+00
10 16  6 17 20  0  0.0-0.475388951600D-04-0.818545231596D-11 0.000000000000D+00
    0.270000000000D+02-0.207812500000D+02 0.471341061819D-08-0.165307084981D+01
   -0.108219683170D-05 0.155996298417D-02 0.614859163761D-05 0.515367343140D+04
    0.504000000000D+06-0.353902578354D-07-0.149960676416D+01-0.707805156708D-07
    0.959049409652D+00 0.262718750000D+03-0.271311788832D+01-0.802390565645D-08
   -0.395730769489D-09 0.000000000000D+00 0.190100000000D+04 0.000000000000D+00
    0.200000000000D+01 0.000000000000D+00 0.232830643654D-08 0.270000000000D+02
    0.496800000000D+06 0.400000000000D+01 0.000000000000D+00 0.000000000000D+00
12 16  6 17 20  0  0.0 0.383006408811D-03 0.102318153950D-11 0.000000000000D+00
    0.630000000000D+02-0.603750000000D+02 0.423767643198D-08-0.607886884906D+00
   -0.295042991638D-05 0.614317378495D-02 0.327080488205D-05 0.515371102715D+04
    0.504000000000D+06 0.167638063431D-07 0.169841625150D+01 0.782310962677D-07
    0.990030818095D+00 0.334906250000D+03 0.767453129561D+00-0.811033817882D-08
   -0.112147527376D-09 0.100000000000D+01 0.190100000000D+04 0.000000000000D+00
    0.200000000000D+01 0.000000000000D+00-0.125728547573D-07 0.630000000000D+02
    0.496800000000D+06 0.000000000000D+00 0.000000000000D+00 0.000000000000D+00
13 16  6 17 20  0  0.0-0.253836624324D-04-0.250111042988D-11 0.000000000000D+00
    0.550000000000D+02 0.510000000000D+02 0.391016287398D-08 0.897048845091D+00
    0.269152224064D-05 0.425919506233D-02 0.104214996099D-04 0.515368790436D+04
    0.504000000000D+06 0.186264514923D-07-0.335253300874D+00-0.856816768646D-07
    0.971601077073D+00 0.183875000000D+03 0.200280873666D+01-0.774532262378D-08
   -0.137148569931D-09 0.100000000000D+01 0.190100000000D+04 0.000000000000D+00
    0.200000000000D+01 0.000000000000D+00-0.111758708954D-07 0.550000000000D+02
    0.496800000000D+06 0.400000000000D+01 0.000000000000D+00 0.000000000000D+00
14 16  6 17 20  0  0.0-0.198851339519D-04-0.204636307899D-11 0.000000000000D+00
    0.620000000000D+02 0.606562500000D+02 0.387980446657D-08 0.254675509450D+01
    0.314041972160D-05 0.876159791369D-02 0.115092843771D-04 0.515403425598D+04
    0.504000000000D+06 0.109896063805D-06-0.372412441204D+00-0.819563865662D-07
    0.964065114987D+00 0.157031250000D+03-0.196273602235D+01-0.751102715014D-08
   -0.166078346401D-09 0.000000000000D+00 0.190100000000D+04 0.000000000000D+00
    0.200000000000D+01 0.000000000000D+00-0.931322574616D-08 0.620000000000D+02
    0.496800000000D+06 0.400000000000D+01 0.000000000000D+00 0.000000000000D+00
16 16  6 17 20  0  0.0-0.102343037724D-04 0.238742359215D-11 0.000000000000D+00
    0.106000000000D+03-0.782812500000D+02 0.417874549009D-08-0.264246723106D+01
   -0.414624810219D-05 0.872634083498D-02 0.303797423840D-05 0.515377494240D+04
    0.504000000000D+06-0.651925802231D-07 0.171721194587D+01-0.171363353729D-06
    0.990540693321D+00 0.340000000000D+03 0.394893091625D+00-0.800461913880D-08
   -0.158935191717D-09 0.000000000000D+00 0.190100000000D+04 0.000000000000D+00
    0.200000000000D+01 0.000000000000D+00-0.107102096081D-07 0.106000000000D+03
    0.496800000000D+06 0.400000000000D+01 0.000000000000D+00 0.000000000000D+00
17 16  6 17 20  0  0.0-0.204018782824D-03 0.000000000000D+00 0.000000000000D+00
    0.490000000000D+02-0.873750000000D+02 0.397980863215D-08 0.278991650855D+01
   -0.446103513241D-05 0.109838026110D-01 0.999495387077D-05 0.515371035576D+04
    0.504000000000D+06 0.707805156708D-07 0.273868246514D+01-0.186264514923D-06
    0.976922447438D+00 0.191343750000D+03-0.192794478024D+01-0.748459747781D-08
   -0.278583032673D-10 0.100000000000D+01 0.190100000000D+04 0.000000000000D+00
    0.200000000000D+01 0.000000000000D+00-0.107102096081D-07 0.490000000000D+02
    0.496800000000D+06 0.400000000000D+01 0.000000000000D+00 0.000000000000D+00
18 16  6 17 20  0  0.0 0.527499709278D-03 0.397903932026D-11 0.000000000000D+00
    0.710000000000D+02-0.213750000000D+02 0.547094217242D-08-0.193836102614D+01
   -0.106543302536D-05 0.172397459392D-01 0.523589551449D-05 0.515368423462D+04
    0.504000000000D+06 0.359490513802D-06-0.152937466011D+01 0.111758708954D-07
    0.924540898405D+00 0.257718750000D+03-0.187703894397D+01-0.824284334751D-08
   -0.328227957726D-09 0.100000000000D+01 0.190100000000D+04 0.000000000000D+00
    0.200000000000D+01 0.000000000000D+00-0.121071934700D-07 0.710000000000D+02
    0.496800000000D+06 0.400000000000D+01 0.000000000000D+00 0.000000000000D+00
19 16  6 17 20  0  0.0-0.525435898453D-03 0.113686837722D-12 0.000000000000D+00
    0.470000000000D+02-0.624062500000D+02 0.412874340731D-08-0.371788658787D+00
   -0.315159559250D-05 0.107821581187D-01 0.100601464510D-04 0.515362611580D+04
    0.504000000000D+06 0.931322574616D-08 0.278739062541D+01 0.132247805595D-06
    0.974059344133D+00 0.194968750000D+03 0.792479833829D+00-0.788175687824D-08
    0.492877673191D-10 0.100000000000D+01 0.190100000000D+04 0.000000000000D+00
    0.200000000000D+01 0.000000000000D+00-0.149011611938D-07 0.470000000000D+02
    0.498270000000D+06 0.400000000000D+01 0.000000000000D+00 0.000000000000D+00
20 16  6 17 20  0  0.0 0.419025309384D-03 0.227373675443D-11 0.000000000000D+00
    0.320000000000D+02-0.244375000000D+02 0.560523348047D-08 0.198030907269D+01
   -0.150687992573D-05 0.456605665386D-02 0.504590570927D-05 0.515374576759D+04
    0.504000000000D+06 0.428408384323D-07-0.158118760800D+01-0.745058059692D-07
    0.925816144576D+00 0.263625000000D+03 0.138107914303D+01-0.853178395448D-08
   -0.345014371233D-09 0.100000000000D+01 0.190100000000D+04 0.000000000000D+00
    0.200000000000D+01 0.000000000000D+00-0.838190317154D-08 0.320000000000D+02
    0.496800000000D+06 0.400000000000D+01 0.000000000000D+00 0.000000000000D+00
